STARLINK-31592          
1 59467U 24068N   26068.25794513 -.00001348  00000+0 -39479-4 0  9992
2 59467  43.0027  37.2216 0001182 275.3855  84.6862 15.27575645108456
TEVEL2-3                
1 63218U 25052J   26068.64540225  .00020365  00000+0  69446-3 0  9991
2 63218  97.3994 324.7775 0004761 105.7353 254.4413 15.30377031 54855
