[{"OBJECT_NAME":"STARLINK-31592","OBJECT_ID":"2024-068N","EPOCH":"2026-03-09T06:11:26.459232","MEAN_MOTION":15.27575645,"ECCENTRICITY":0.00011826,"INCLINATION":43.0027,"RA_OF_ASC_NODE":37.2216,"ARG_OF_PERICENTER":275.3855,"MEAN_ANOMALY":84.6862,"EPHEMERIS_TYPE":0,"CLASSIFICATION_TYPE":"U","NORAD_CAT_ID":59467,"ELEMENT_SET_NO":999,"REV_AT_EPOCH":10845,"BSTAR":-3.9478675e-5,"MEAN_MOTION_DOT":-1.348e-5,"MEAN_MOTION_DDOT":0},{"OBJECT_NAME":"TEVEL2-3","OBJECT_ID":"2025-052J","EPOCH":"2026-03-09T15:29:22.754400","MEAN_MOTION":15.30377031,"ECCENTRICITY":0.0004761,"INCLINATION":97.3994,"RA_OF_ASC_NODE":324.7775,"ARG_OF_PERICENTER":105.7353,"MEAN_ANOMALY":254.4413,"EPHEMERIS_TYPE":0,"CLASSIFICATION_TYPE":"U","NORAD_CAT_ID":63218,"ELEMENT_SET_NO":999,"REV_AT_EPOCH":5485,"BSTAR":0.00069446,"MEAN_MOTION_DOT":0.00020365,"MEAN_MOTION_DDOT":0}]
